SBSS (USA 216)          
1 37168U 10048A   26068.88624904  .00004946  00000+0  24191-3 0  9993
2 37168  97.7474 312.3885 0082264 184.8326 306.5835 15.15724210837421
STARLINK-34629          
1 64790U 25150A   26068.58291766  .00001410  00000+0  12593-3 0  9993
2 64790  70.0042 134.6192 0003243 293.7349  66.3469 14.98326529 36503
